{
  "type": "FeatureCollection",
  "features": [
    {
      "type": "Feature",
      "properties": {
        "norad_id": 66569,
        "name": "STARLINK-35835",
        "group": "last-30-days",
        "lat": -9.414750963613095,
        "lon": -83.71741382639064,
        "alt_km": 415.69941713356,
        "timestamp": "2025-12-18T17:50:13.699035+00:00",
        "meta_object_name": "STARLINK-35835",
        "meta_object_id": "2025-268N",
        "meta_epoch": "2025-12-18T04:38:17.741760",
        "meta_mean_motion": 15.50619099,
        "meta_eccentricity": 2.062e-05,
        "meta_inclination": 42.9974,
        "meta_ra_of_asc_node": 89.2499,
        "meta_arg_of_pericenter": 317.9673,
        "meta_mean_anomaly": 42.1171,
        "meta_ephemeris_type": 0,
        "meta_classification_type": "U",
        "meta_norad_cat_id": 66569,
        "meta_element_set_no": 999,
        "meta_rev_at_epoch": 547,
        "meta_bstar": 0.0011190745,
        "meta_mean_motion_dot": 0.00065958,
        "meta_mean_motion_ddot": 0,
        "tle_line1": "1 66569U 25268N   25352.19326090  .00065958  00000+0  11191-2 0  9999",
        "tle_line2": "2 66569  42.9974  89.2499 0000206 317.9673  42.1171 15.50619099  5471"
      },
      "geometry": {
        "type": "Point",
        "coordinates": [
          -83.71741382639064,
          -9.414750963613095
        ]
      }
    },
    {
      "type": "Feature",
      "properties": {
        "norad_id": 66570,
        "name": "STARLINK-35834",
        "group": "last-30-days",
        "lat": -10.699876386631887,
        "lon": -82.27284874727081,
        "alt_km": 415.8753685339143,
        "timestamp": "2025-12-18T17:50:13.699045+00:00",
        "meta_object_name": "STARLINK-35834",
        "meta_object_id": "2025-268P",
        "meta_epoch": "2025-12-18T06:10:33.333600",
        "meta_mean_motion": 15.50629464,
        "meta_eccentricity": 1.625e-05,
        "meta_inclination": 42.9965,
        "meta_ra_of_asc_node": 88.87,
        "meta_arg_of_pericenter": 20.7347,
        "meta_mean_anomaly": 339.352,
        "meta_ephemeris_type": 0,
        "meta_classification_type": "U",
        "meta_norad_cat_id": 66570,
        "meta_element_set_no": 999,
        "meta_rev_at_epoch": 548,
        "meta_bstar": 0.00097294209,
        "meta_mean_motion_dot": 0.00057258,
        "meta_mean_motion_ddot": 0,
        "tle_line1": "1 66570U 25268P   25352.25733025  .00057258  00000+0  97294-3 0  9991",
        "tle_line2": "2 66570  42.9965  88.8700 0000162  20.7347 339.3520 15.50629464  5488"
      },
      "geometry": {
        "type": "Point",
        "coordinates": [
          -82.27284874727081,
          -10.699876386631887
        ]
      }
    },
    {
      "type": "Feature",
      "properties": {
        "norad_id": 66571,
        "name": "STARLINK-35836",
        "group": "last-30-days",
        "lat": -11.8989266079707,
        "lon": -80.9105093085671,
        "alt_km": 415.8705034744735,
        "timestamp": "2025-12-18T17:50:13.699056+00:00",
        "meta_object_name": "STARLINK-35836",
        "meta_object_id": "2025-268Q",
        "meta_epoch": "2025-12-18T03:04:32.750112",
        "meta_mean_motion": 15.50588696,
        "meta_eccentricity": 0.00015752,
        "meta_inclination": 43.0015,
        "meta_ra_of_asc_node": 89.6197,
        "meta_arg_of_pericenter": 271.0321,
        "meta_mean_anomaly": 89.0359,
        "meta_ephemeris_type": 0,
        "meta_classification_type": "U",
        "meta_norad_cat_id": 66571,
        "meta_element_set_no": 999,
        "meta_rev_at_epoch": 546,
        "meta_bstar": 0.00039751228,
        "meta_mean_motion_dot": 0.00023055,
        "meta_mean_motion_ddot": 0,
        "tle_line1": "1 66571U 25268Q   25352.12815683  .00023055  00000+0  39751-3 0  9991",
        "tle_line2": "2 66571  43.0015  89.6197 0001575 271.0321  89.0359 15.50588696  5466"
      },
      "geometry": {
        "type": "Point",
        "coordinates": [
          -80.9105093085671,
          -11.8989266079707
        ]
      }
    },
    {
      "type": "Feature",
      "properties": {
        "norad_id": 66572,
        "name": "STARLINK-35870",
        "group": "last-30-days",
        "lat": -13.114386611295892,
        "lon": -79.50562595489723,
        "alt_km": 416.08584948586577,
        "timestamp": "2025-12-18T17:50:13.699066+00:00",
        "meta_object_name": "STARLINK-35870",
        "meta_object_id": "2025-268R",
        "meta_epoch": "2025-12-18T00:00:02.000160",
        "meta_mean_motion": 15.50550087,
        "meta_eccentricity": 0.00015408,
        "meta_inclination": 43.001,
        "meta_ra_of_asc_node": 90.3647,
        "meta_arg_of_pericenter": 269.8549,
        "meta_mean_anomaly": 96.0357,
        "meta_ephemeris_type": 0,
        "meta_classification_type": "U",
        "meta_norad_cat_id": 66572,
        "meta_element_set_no": 999,
        "meta_rev_at_epoch": 551,
        "meta_bstar": 0.00029129984,
        "meta_mean_motion_dot": 0.00016766,
        "meta_mean_motion_ddot": 0,
        "tle_line1": "1 66572U 25268R   25352.00002315  .00016766  00000+0  29130-3 0  9990",
        "tle_line2": "2 66572  43.0010  90.3647 0001540 269.8549  96.0357 15.50550087  5515"
      },
      "geometry": {
        "type": "Point",
        "coordinates": [
          -79.50562595489723,
          -13.114386611295892
        ]
      }
    },
    {
      "type": "Feature",
      "properties": {
        "norad_id": 66573,
        "name": "STARLINK-35650",
        "group": "last-30-days",
        "lat": -14.385843730285382,
        "lon": -78.01055640525482,
        "alt_km": 415.9476741479575,
        "timestamp": "2025-12-18T17:50:13.699076+00:00",
        "meta_object_name": "STARLINK-35650",
        "meta_object_id": "2025-268S",
        "meta_epoch": "2025-12-18T06:00:02.999808",
        "meta_mean_motion": 15.50491115,
        "meta_eccentricity": 0.00014392,
        "meta_inclination": 43.001,
        "meta_ra_of_asc_node": 88.8982,
        "meta_arg_of_pericenter": 259.975,
        "meta_mean_anomaly": 65.1216,
        "meta_ephemeris_type": 0,
        "meta_classification_type": "U",
        "meta_norad_cat_id": 66573,
        "meta_element_set_no": 999,
        "meta_rev_at_epoch": 555,
        "meta_bstar": 0.0018755575,
        "meta_mean_motion_dot": 0.00110912,
        "meta_mean_motion_ddot": 0,
        "tle_line1": "1 66573U 25268S   25352.25003472  .00110912  00000+0  18756-2 0  9992",
        "tle_line2": "2 66573  43.0010  88.8982 0001439 259.9750  65.1216 15.50491115  5552"
      },
      "geometry": {
        "type": "Point",
        "coordinates": [
          -78.01055640525482,
          -14.385843730285382
        ]
      }
    },
    {
      "type": "Feature",
      "properties": {
        "norad_id": 66574,
        "name": "STARLINK-35812",
        "group": "last-30-days",
        "lat": -15.719946683145018,
        "lon": -76.41264059978987,
        "alt_km": 416.3740264679691,
        "timestamp": "2025-12-18T17:50:13.699087+00:00",
        "meta_object_name": "STARLINK-35812",
        "meta_object_id": "2025-268T",
        "meta_epoch": "2025-12-17T23:57:33.792192",
        "meta_mean_motion": 15.50579362,
        "meta_eccentricity": 2.71e-05,
        "meta_inclination": 42.9991,
        "meta_ra_of_asc_node": 90.3647,
        "meta_arg_of_pericenter": 316.509,
        "meta_mean_anomaly": 43.5748,
        "meta_ephemeris_type": 0,
        "meta_classification_type": "U",
        "meta_norad_cat_id": 66574,
        "meta_element_set_no": 999,
        "meta_rev_at_epoch": 544,
        "meta_bstar": 0.0011917303,
        "meta_mean_motion_dot": 0.00070201,
        "meta_mean_motion_ddot": 0,
        "tle_line1": "1 66574U 25268T   25351.99830778  .00070201  00000+0  11917-2 0  9998",
        "tle_line2": "2 66574  42.9991  90.3647 0000271 316.5090  43.5748 15.50579362  5444"
      },
      "geometry": {
        "type": "Point",
        "coordinates": [
          -76.41264059978987,
          -15.719946683145018
        ]
      }
    },
    {
      "type": "Feature",
      "properties": {
        "norad_id": 66575,
        "name": "STARLINK-35810",
        "group": "last-30-days",
        "lat": -16.99847990669891,
        "lon": -74.85219312267064,
        "alt_km": 415.6935995334097,
        "timestamp": "2025-12-18T17:50:13.699104+00:00",
        "meta_object_name": "STARLINK-35810",
        "meta_object_id": "2025-268U",
        "meta_epoch": "2025-12-17T23:57:03.017376",
        "meta_mean_motion": 15.5059527,
        "meta_eccentricity": 0.00023812,
        "meta_inclination": 43.0049,
        "meta_ra_of_asc_node": 90.3605,
        "meta_arg_of_pericenter": 264.7173,
        "meta_mean_anomaly": 95.3416,
        "meta_ephemeris_type": 0,
        "meta_classification_type": "U",
        "meta_norad_cat_id": 66575,
        "meta_element_set_no": 999,
        "meta_rev_at_epoch": 544,
        "meta_bstar": 0.0010970118,
        "meta_mean_motion_dot": 0.00064588,
        "meta_mean_motion_ddot": 0,
        "tle_line1": "1 66575U 25268U   25351.99795159  .00064588  00000+0  10970-2 0  9991",
        "tle_line2": "2 66575  43.0049  90.3605 0002381 264.7173  95.3416 15.50595270  5448"
      },
      "geometry": {
        "type": "Point",
        "coordinates": [
          -74.85219312267064,
          -16.99847990669891
        ]
      }
    }
  ]
}